0 FENGYUN 1C DEB
1 31302U 99025BPL 13285.81113846  .00001383  00000-0  85407-3 0  7636
2 31302 099.3715 034.8455 0037404 223.7274 288.5245 14.06833445336171
0 FENGYUN 1C DEB
1 31302U 99025BPL 13288.15132096  .00002350  00000-0  14306-2 0  7649
2 31302 099.3719 037.2693 0037624 217.6508 260.2567 14.06842666336508
0 FENGYUN 1C DEB
1 31302U 99025BPL 13290.26744535  .00002248  00000-0  13697-2 0  7650
2 31302 099.3718 039.4609 0037640 211.7833 177.6927 14.06849618336800
0 FENGYUN 1C DEB
1 31302U 99025BPL 13292.78150543  .00002500  00000-0  15194-2 0  7665
2 31302 099.3717 042.0649 0037694 205.0162 310.4159 14.06860337337157
0 FENGYUN 1C DEB
1 31302U 99025BPL 13295.76963934  .00002814  00000-0  17066-2 0  7671
2 31302 099.3711 045.1592 0037686 196.8951 324.3538 14.06874962337576
